NORAD_CAT_ID,OBJECT_NAME,OBJECT_TYPE,EPOCH,MEAN_MOTION,ECCENTRICITY,INCLINATION,RA_OF_ASC_NODE,ARG_OF_PERICENTER,MEAN_ANOMALY,BSTAR,MEAN_MOTION_DOT,MEAN_MOTION_DDOT,TLE_LINE0,TLE_LINE1,TLE_LINE2,SEMIMAJOR_AXIS,PERIOD,APOGEE,PERIGEE,DECAYED
53535.0,STARLINK-4138,PAYLOAD,2024-07-04 14:38:17,15.08850566,0.0001172,53.2169,306.3453,89.4797,270.6329,5.6201e-05,6.07e-06,0.0,0 STARLINK-4138,1 53535U 22101J   24186.60992253  .00000607  00000-0  56201-4 0  9995,2 53535  53.2169 306.3453 0001172  89.4797 270.6329 15.08850566103612,6917.848,95.437,540.524,538.902,0.0
53535.0,STARLINK-4138,PAYLOAD,2024-07-05 14:29:04,15.08850109,0.0001413,53.2175,301.8836,94.3659,265.7494,0.00030846,4.626e-05,0.0,0 STARLINK-4138,1 53535U 22101J   24187.60352483  .00004626  00000-0  30846-3 0  9992,2 53535  53.2175 301.8836 0001413  94.3659 265.7494 15.08850109103761,6917.849,95.437,540.692,538.737,0.0
53535.0,STARLINK-4138,PAYLOAD,2024-07-06 12:44:28,15.08839051,0.000139,53.2186,297.7246,97.9189,262.1961,-2.5232e-05,-6.89e-06,0.0,0 STARLINK-4138,1 53535U 22101J   24188.53088770 -.00000689  00000-0 -25232-4 0  9991,2 53535  53.2186 297.7246 0001390  97.9189 262.1961 15.08839051103901,6917.883,95.438,540.71,538.787,0.0
53535.0,STARLINK-4138,PAYLOAD,2024-07-06 14:19:51,15.08841923,0.0001284,53.2172,297.4248,93.1965,266.9174,1.1317e-06,-2.7e-06,0.0,0 STARLINK-4138,1 53535U 22101J   24188.59712569 -.00000270  00000-0  11317-5 0  9992,2 53535  53.2172 297.4248 0001284  93.1965 266.9174 15.08841923103917,6917.875,95.437,540.628,538.851,0.0
53535.0,STARLINK-4138,PAYLOAD,2024-07-07 10:59:52,15.08838683,0.00013,53.2168,293.5597,105.2115,254.9021,1.8355e-06,-2.59e-06,0.0,0 STARLINK-4138,1 53535U 22101J   24189.45824776 -.00000259  00000-0  18355-5 0  9998,2 53535  53.2168 293.5597 0001300 105.2115 254.9021 15.08838683104049,6917.884,95.438,540.649,538.85,0.0
53535.0,STARLINK-4138,PAYLOAD,2024-07-08 12:26:02,15.08839549,0.0001299,53.2169,288.8014,90.5618,269.5523,0.00011293,1.51e-05,0.0,0 STARLINK-4138,1 53535U 22101J   24190.51809005  .00001510  00000-0  11293-3 0  9997,2 53535  53.2169 288.8014 0001299  90.5618 269.5523 15.08839549104201,6917.882,95.438,540.645,538.848,0.0
53535.0,STARLINK-4138,PAYLOAD,2024-07-09 13:52:13,15.08842911,0.0001373,53.2174,284.0448,85.8133,274.3016,0.0001002,1.307e-05,0.0,0 STARLINK-4138,1 53535U 22101J   24191.57792901  .00001307  00000-0  10020-3 0  9991,2 53535  53.2174 284.0448 0001373  85.8133 274.3016 15.08842911104363,6917.871,95.437,540.686,538.787,0.0
53535.0,STARLINK-4138,PAYLOAD,2024-07-10 12:07:37,15.08837397,0.0001352,53.218,279.8816,91.9473,268.1674,4.3777e-05,4.09e-06,0.0,0 STARLINK-4138,1 53535U 22101J   24192.50529463  .00000409  00000-0  43777-4 0  9994,2 53535  53.2180 279.8816 0001352  91.9473 268.1674 15.08837397104502,6917.888,95.438,540.689,538.818,0.0
53535.0,STARLINK-4138,PAYLOAD,2024-07-11 11:58:23,15.08848749,0.0001279,53.2171,275.4208,93.9234,266.1905,0.00010772,1.427e-05,0.0,0 STARLINK-4138,1 53535U 22101J   24193.49888529  .00001427  00000-0  10772-3 0  9993,2 53535  53.2171 275.4208 0001279  93.9234 266.1905 15.08848749104658,6917.854,95.437,540.603,538.834,0.0
53535.0,STARLINK-4138,PAYLOAD,2024-07-12 05:27:38,15.08841733,0.0001491,53.2165,272.1503,98.6467,261.4694,7.2e-05,8.58e-06,0.0,0 STARLINK-4138,1 53535U 22101J   24194.22753103  .00000858  00000-0  72000-4 0  9994,2 53535  53.2165 272.1503 0001491  98.6467 261.4694 15.08841733104760,6917.875,95.437,540.772,538.709,0.0
53535.0,STARLINK-4138,PAYLOAD,2024-07-12 11:49:11,15.08841658,0.0001446,53.2168,270.9608,98.039,262.0766,6.281e-05,7.12e-06,0.0,0 STARLINK-4138,1 53535U 22101J   24194.49249107  .00000712  00000-0  62810-4 0  9994,2 53535  53.2168 270.9608 0001446  98.0390 262.0766 15.08841658104802,6917.875,95.437,540.741,538.74,0.0
53535.0,STARLINK-4138,PAYLOAD,2024-07-13 11:39:58,15.08842653,0.0001382,53.2164,266.5027,80.2514,279.8634,3.9382e-05,3.39e-06,0.0,0 STARLINK-4138,1 53535U 22101J   24195.48609097  .00000339  00000-0  39382-4 0  9995,2 53535  53.2164 266.5027 0001382  80.2514 279.8634 15.08842653104956,6917.872,95.437,540.693,538.781,0.0
53535.0,STARLINK-4138,PAYLOAD,2024-07-13 21:12:17,15.08840794,0.000127,53.2162,264.7163,89.6996,270.4142,3.5163e-05,2.72e-06,0.0,0 STARLINK-4138,1 53535U 22101J   24195.88353176  .00000272  00000-0  35163-4 0  9992,2 53535  53.2162 264.7163 0001270  89.6996 270.4142 15.08840794105011,6917.878,95.438,540.622,538.864,0.0
53535.0,STARLINK-4138,PAYLOAD,2024-07-14 05:09:13,15.088351,0.0001228,53.2162,263.2305,84.76,275.3532,7.458e-05,8.99e-06,0.0,0 STARLINK-4138,1 53535U 22101J   24196.21473465  .00000899  00000-0  74580-4 0  9995,2 53535  53.2162 263.2305 0001228  84.7600 275.3532 15.08835100105061,6917.895,95.438,540.61,538.911,0.0
53535.0,STARLINK-4138,PAYLOAD,2024-07-14 11:30:45,15.08840435,0.0001262,53.2168,262.0411,86.1155,273.9981,0.00010972,1.459e-05,0.0,0 STARLINK-4138,1 53535U 22101J   24196.47969100  .00001459  00000-0  10972-3 0  9996,2 53535  53.2168 262.0411 0001262  86.1155 273.9981 15.08840435105105,6917.879,95.438,540.617,538.871,0.0
53535.0,STARLINK-4138,PAYLOAD,2024-07-14 21:03:04,15.08841499,0.0001249,53.2166,260.2569,86.0701,274.0434,1.2412e-05,-9e-07,0.0,0 STARLINK-4138,1 53535U 22101J   24196.87713270 -.00000090  00000-0  12412-4 0  9998,2 53535  53.2166 260.2569 0001249  86.0701 274.0434 15.08841499105160,6917.876,95.437,540.605,538.877,0.0
53535.0,STARLINK-4138,PAYLOAD,2024-07-15 11:21:33,15.08834171,0.0001334,53.217,257.5806,87.7845,272.33,2.7097e-05,1.43e-06,0.0,0 STARLINK-4138,1 53535U 22101J   24197.47329922  .00000143  00000-0  27097-4 0  9995,2 53535  53.2170 257.5806 0001334  87.7845 272.3300 15.08834171105252,6917.898,95.438,540.686,538.84,0.0
53535.0,STARLINK-4138,PAYLOAD,2024-07-15 20:53:51,15.08836198,0.0001455,53.2175,255.7964,90.0674,270.0485,4.2641e-05,3.91e-06,0.0,0 STARLINK-4138,1 53535U 22101J   24197.87073808  .00000391  00000-0  42641-4 0  9995,2 53535  53.2175 255.7964 0001455  90.0674 270.0485 15.08836198105310,6917.892,95.438,540.764,538.75,0.0
53535.0,STARLINK-4138,PAYLOAD,2024-07-16 11:12:19,15.0884494,0.0001381,53.2164,253.119,89.146,270.969,6.6945e-05,7.78e-06,0.0,0 STARLINK-4138,1 53535U 22101J   24198.46689274  .00000778  00000-0  66945-4 0  9993,2 53535  53.2164 253.1190 0001381  89.1460 270.9690 15.08844940105402,6917.865,95.437,540.686,538.775,0.0
53535.0,STARLINK-4138,PAYLOAD,2024-07-17 03:06:11,15.08839901,0.0001629,53.2162,250.1453,75.0672,285.05,0.00012075,1.634e-05,0.0,0 STARLINK-4138,1 53535U 22101J   24199.12929547  .00001634  00000-0  12075-3 0  9993,2 53535  53.2162 250.1453 0001629  75.0672 285.0500 15.08839901105502,6917.881,95.438,540.873,538.619,0.0
53535.0,STARLINK-4138,PAYLOAD,2024-07-17 11:03:06,15.08842415,0.0001413,53.2159,248.657,83.2782,276.8371,8.4544e-05,1.058e-05,0.0,0 STARLINK-4138,1 53535U 22101J   24199.46049456  .00001058  00000-0  84544-4 0  9993,2 53535  53.2159 248.6570 0001413  83.2782 276.8371 15.08842415105557,6917.873,95.437,540.716,538.761,0.0
53535.0,STARLINK-4138,PAYLOAD,2024-07-18 09:18:31,15.08837442,0.0001528,53.2169,244.494,91.0089,269.1078,3.172e-05,2.17e-06,0.0,0 STARLINK-4138,1 53535U 22101J   24200.38786194  .00000217  00000-0  31720-4 0  9998,2 53535  53.2169 244.4940 0001528  91.0089 269.1078 15.08837442105695,6917.888,95.438,540.81,538.696,0.0
53535.0,STARLINK-4138,PAYLOAD,2024-07-19 09:09:17,15.08846042,0.0001401,53.216,240.0317,91.4016,268.7136,8.9834e-05,1.142e-05,0.0,0 STARLINK-4138,1 53535U 22101J   24201.38145536  .00001142  00000-0  89834-4 0  9995,2 53535  53.2160 240.0317 0001401  91.4016 268.7136 15.08846042105843,6917.862,95.437,540.696,538.758,0.0
53535.0,STARLINK-4138,PAYLOAD,2024-07-20 02:38:32,15.08838169,0.0001577,53.2171,236.7606,99.5918,260.5252,7.2892e-05,8.72e-06,0.0,0 STARLINK-4138,1 53535U 22101J   24202.11010057  .00000872  00000-0  72892-4 0  9991,2 53535  53.2171 236.7606 0001577  99.5918 260.5252 15.08838169105954,6917.886,95.438,540.842,538.66,0.0
53535.0,STARLINK-4138,PAYLOAD,2024-07-20 09:00:05,15.08836797,0.0001454,53.216,235.5732,91.8483,268.2676,6.342e-05,7.21e-06,0.0,0 STARLINK-4138,1 53535U 22101J   24202.37506229  .00000721  00000-0  63420-4 0  9990,2 53535  53.2160 235.5732 0001454  91.8483 268.2676 15.08836797105999,6917.89,95.438,540.761,538.749,0.0
53535.0,STARLINK-4138,PAYLOAD,2024-07-21 08:50:52,15.08839965,0.0001358,53.2155,231.1129,85.3126,274.8021,-2.2572e-06,-3.24e-06,0.0,0 STARLINK-4138,1 53535U 22101J   24203.36866401 -.00000324  00000-0 -22572-5 0  9996,2 53535  53.2155 231.1129 0001358  85.3126 274.8021 15.08839965106145,6917.88,95.438,540.685,538.806,0.0
53535.0,STARLINK-4138,PAYLOAD,2024-07-22 11:52:25,15.08841261,0.0001457,53.2161,226.0556,84.5686,275.5472,6.3086e-05,7.16e-06,0.0,0 STARLINK-4138,1 53535U 22101J   24204.49474269  .00000716  00000-0  63086-4 0  9995,2 53535  53.2161 226.0556 0001457  84.5686 275.5472 15.08841261106310,6917.877,95.437,540.749,538.734,0.0
53535.0,STARLINK-4138,PAYLOAD,2024-07-23 08:32:26,15.08841349,0.0001381,53.2158,222.1904,92.6439,267.4711,9.2182e-05,1.18e-05,0.0,0 STARLINK-4138,1 53535U 22101J   24205.35586301  .00001180  00000-0  92182-4 0  9997,2 53535  53.2158 222.1904 0001381  92.6439 267.4711 15.08841349106449,6917.876,95.437,540.697,538.786,0.0
53535.0,STARLINK-4138,PAYLOAD,2024-07-24 05:12:28,15.08834675,0.0001293,53.2151,218.3248,93.6188,266.4952,-7.7055e-06,-4.1e-06,0.0,0 STARLINK-4138,1 53535U 22101J   24206.21699152 -.00000410  00000-0 -77055-5 0  9992,2 53535  53.2151 218.3248 0001293  93.6188 266.4952 15.08834675106578,6917.897,95.438,540.656,538.867,0.0
53535.0,STARLINK-4138,PAYLOAD,2024-07-24 09:58:37,15.08835978,0.0001287,53.215,217.4326,91.939,268.175,7.8712e-07,-2.75e-06,0.0,0 STARLINK-4138,1 53535U 22101J   24206.41571080 -.00000275  00000-0  78712-6 0  9993,2 53535  53.2150 217.4326 0001287  91.9390 268.1750 15.08835978106609,6917.893,95.438,540.648,538.867,0.0
